{
    "links": {
        "self": "http://www.neowsapp.com/rest/v1/neo/54016323?api_key=iIulBulltgU6a56xZRHN4H3l9WmuAYTsLGpBGhQ2"
    },
    "id": "54016323",
    "neo_reference_id": "54016323",
    "name": "(2020 FO3)",
    "designation": "2020 FO3",
    "nasa_jpl_url": "http://ssd.jpl.nasa.gov/sbdb.cgi?sstr=54016323",
    "absolute_magnitude_h": 23.014,
    "estimated_diameter": {
        "kilometers": {
            "estimated_diameter_min": 0.0663368701,
            "estimated_diameter_max": 0.1483337509
        },
        "meters": {
            "estimated_diameter_min": 66.3368700666,
            "estimated_diameter_max": 148.3337508835
        },
        "miles": {
            "estimated_diameter_min": 0.0412198073,
            "estimated_diameter_max": 0.0921702911
        },
        "feet": {
            "estimated_diameter_min": 217.6406567894,
            "estimated_diameter_max": 486.6593032488
        }
    },
    "is_potentially_hazardous_asteroid": false,
    "close_approach_data": [
        {
            "close_approach_date": "2016-03-24",
            "close_approach_date_full": "2016-Mar-24 04:26",
            "epoch_date_close_approach": 1458793560000,
            "relative_velocity": {
                "kilometers_per_second": "12.0726931219",
                "kilometers_per_hour": "43461.6952387331",
                "miles_per_hour": "27005.4072443117"
            },
            "miss_distance": {
                "astronomical": "0.2271905235",
                "lunar": "88.3771136415",
                "kilometers": "33987218.399784945",
                "miles": "21118678.227504441"
            },
            "orbiting_body": "Earth"
        },
        {
            "close_approach_date": "2020-03-16",
            "close_approach_date_full": "2020-Mar-16 22:55",
            "epoch_date_close_approach": 1584399300000,
            "relative_velocity": {
                "kilometers_per_second": "11.4540190185",
                "kilometers_per_hour": "41234.4684664452",
                "miles_per_hour": "25621.4951423865"
            },
            "miss_distance": {
                "astronomical": "0.1717257237",
                "lunar": "66.8013065193",
                "kilometers": "25689802.489728519",
                "miles": "15962903.0574668022"
            },
            "orbiting_body": "Earth"
        },
        {
            "close_approach_date": "2024-03-06",
            "close_approach_date_full": "2024-Mar-06 04:50",
            "epoch_date_close_approach": 1709700600000,
            "relative_velocity": {
                "kilometers_per_second": "13.0726440009",
                "kilometers_per_hour": "47061.5184030773",
                "miles_per_hour": "29242.1973655121"
            },
            "miss_distance": {
                "astronomical": "0.3941547163",
                "lunar": "153.3261846407",
                "kilometers": "58964706.008934281",
                "miles": "36638969.3423678378"
            },
            "orbiting_body": "Earth"
        }
    ],
    "orbital_data": {
        "orbit_id": "2",
        "orbit_determination_date": "2020-04-02 06:06:07",
        "first_observation_date": "2020-03-22",
        "last_observation_date": "2020-04-01",
        "data_arc_in_days": 10,
        "observations_used": 23,
        "orbit_uncertainty": "8",
        "minimum_orbit_intersection": ".142487",
        "jupiter_tisserand_invariant": "5.156",
        "epoch_osculation": "2458931.5",
        "eccentricity": ".06808970739511801",
        "semi_major_axis": "1.221261303881637",
        "inclination": "22.18377730166188",
        "ascending_node_longitude": "178.2568493038403",
        "orbital_period": "492.9595921645142",
        "perihelion_distance": "1.138105979047356",
        "perihelion_argument": "1.441223843064813",
        "aphelion_distance": "1.304416628715918",
        "perihelion_time": "2458935.045514125589",
        "mean_anomaly": "357.4107713786284",
        "mean_motion": ".7302829800294425",
        "equinox": "J2000",
        "orbit_class": {
            "orbit_class_type": "AMO",
            "orbit_class_description": "Near-Earth asteroid orbits similar to that of 1221 Amor",
            "orbit_class_range": "1.017 AU < q (perihelion) < 1.3 AU"
        }
    },
    "is_sentry_object": false
}